CTC2_L_00514001-01
1 25824U 25949IE  26070.40849537  .00000000  00000+0  00000-0 0  9994
2 25824  97.5000   0.0000 0000000   0.0000   0.0000 15.38683946    18
CTC2_L_00514001-02
1 25825U 26904MD  26070.40849537  .00000000  00000+0  00000-0 0  9997
2 25825  97.5000   0.0000 0000000   0.0000 180.0000 15.38683946    18
CTC2_L_00514002-01
1 25826U 24562FY  26070.40849537  .00000000  00000+0  00000-0 0  9996
2 25826  97.5000  12.0000 0000000   0.0000  24.0000 15.38683946    19
CTC2_L_00514002-02
1 25827U 26141AL  26070.40849537  .00000000  00000+0  00000-0 0  9992
2 25827  97.5000  12.0000 0000000   0.0000 204.0000 15.38683946    10
CTC2_L_00514003-01
1 25828U 25834WX  26070.40849537  .00000000  00000+0  00000-0 0  9991
2 25828  97.5000  24.0000 0000000   0.0000  48.0000 15.38683946    10
CTC2_L_00514003-02
1 25829U 25716KO  26070.40849537  .00000000  00000+0  00000-0 0  9991
2 25829  97.5000  24.0000 0000000   0.0000 228.0000 15.38683946    11
CTC2_L_00514004-01
1 25830U 26188BR  26070.40849537  .00000000  00000+0  00000-0 0  9997
2 25830  97.5000  36.0000 0000000   0.0000  72.0000 15.38683946    13
CTC2_L_00514004-02
1 25831U 22301OP  26070.40849537  .00000000  00000+0  00000-0 0  9991
2 25831  97.5000  36.0000 0000000   0.0000 252.0000 15.38683946    14
CTC2_L_00514005-01
1 25832U 26535PW  26070.40849537  .00000000  00000+0  00000-0 0  9995
2 25832  97.5000  48.0000 0000000   0.0000  96.0000 15.38683946    14
CTC2_L_00514005-02
1 25833U 23057MQ  26070.40849537  .00000000  00000+0  00000-0 0  9992
2 25833  97.5000  48.0000 0000000   0.0000 276.0000 15.38683946    15
CTC2_L_00514006-01
1 25834U 26858YZ  26070.40849537  .00000000  00000+0  00000-0 0  9995
2 25834  97.5000  60.0000 0000000   0.0000 120.0000 15.38683946    18
CTC2_L_00514006-02
1 25835U 26264YD  26070.40849537  .00000000  00000+0  00000-0 0  9997
2 25835  97.5000  60.0000 0000000   0.0000 300.0000 15.38683946    19
CTC2_L_00514007-01
1 25836U 22829MH  26070.40849537  .00000000  00000+0  00000-0 0  9991
2 25836  97.5000  72.0000 0000000   0.0000 144.0000 15.38683946    19
CTC2_L_00514007-02
1 25837U 24955AQ  26070.40849537  .00000000  00000+0  00000-0 0  9994
2 25837  97.5000  72.0000 0000000   0.0000 324.0000 15.38683946    10
CTC2_L_00514008-01
1 25838U 24426AN  26070.40849537  .00000000  00000+0  00000-0 0  9998
2 25838  97.5000  84.0000 0000000   0.0000 168.0000 15.38683946    10
CTC2_L_00514008-02
1 25839U 23339JO  26070.40849537  .00000000  00000+0  00000-0 0  9991
2 25839  97.5000  84.0000 0000000   0.0000 348.0000 15.38683946    11
CTC2_L_00514009-01
1 25840U 23728FW  26070.40849537  .00000000  00000+0  00000-0 0  9995
2 25840  97.5000  96.0000 0000000   0.0000 192.0000 15.38683946    13
CTC2_L_00514009-02
1 25841U 26177HA  26070.40849537  .00000000  00000+0  00000-0 0  9997
2 25841  97.5000  96.0000 0000000   0.0000  12.0000 15.38683946    15
CTC2_L_00514010-01
1 25842U 23965BZ  26070.40849537  .00000000  00000+0  00000-0 0  9990
2 25842  97.5000 108.0000 0000000   0.0000 216.0000 15.38683946    16
CTC2_L_00514010-02
1 25843U 26390XO  26070.40849537  .00000000  00000+0  00000-0 0  9996
2 25843  97.5000 108.0000 0000000   0.0000  36.0000 15.38683946    17
CTC2_L_00514011-01
1 25844U 25649KV  26070.40849537  .00000000  00000+0  00000-0 0  9993
2 25844  97.5000 120.0000 0000000   0.0000 240.0000 15.38683946    19
CTC2_L_00514011-02
1 25845U 22743QI  26070.40849537  .00000000  00000+0  00000-0 0  9996
2 25845  97.5000 120.0000 0000000   0.0000  60.0000 15.38683946    10
CTC2_L_00514012-01
1 25846U 25061VQ  26070.40849537  .00000000  00000+0  00000-0 0  9993
2 25846  97.5000 132.0000 0000000   0.0000 264.0000 15.38683946    10
CTC2_L_00514012-02
1 25847U 25915GD  26070.40849537  .00000000  00000+0  00000-0 0  9992
2 25847  97.5000 132.0000 0000000   0.0000  84.0000 15.38683946    11
CTC2_L_00514013-01
1 25848U 25780II  26070.40849537  .00000000  00000+0  00000-0 0  9993
2 25848  97.5000 144.0000 0000000   0.0000 288.0000 15.38683946    11
CTC2_L_00514013-02
1 25849U 23417XZ  26070.40849537  .00000000  00000+0  00000-0 0  9999
2 25849  97.5000 144.0000 0000000   0.0000 108.0000 15.38683946    13
CTC2_L_00514014-01
1 25850U 22238VT  26070.40849537  .00000000  00000+0  00000-0 0  9991
2 25850  97.5000 156.0000 0000000   0.0000 312.0000 15.38683946    15
CTC2_L_00514014-02
1 25851U 23769LT  26070.40849537  .00000000  00000+0  00000-0 0  9992
2 25851  97.5000 156.0000 0000000   0.0000 132.0000 15.38683946    16
CTC2_L_00514015-01
1 25852U 23346MS  26070.40849537  .00000000  00000+0  00000-0 0  9994
2 25852  97.5000 168.0000 0000000   0.0000 336.0000 15.38683946    16
CTC2_L_00514015-02
1 25853U 22664LT  26070.40849537  .00000000  00000+0  00000-0 0  9997
2 25853  97.5000 168.0000 0000000   0.0000 156.0000 15.38683946    17
CTC2_L_00514016-01
1 25854U 25987MI  26070.40849537  .00000000  00000+0  00000-0 0  9999
2 25854  97.5000 180.0000 0000000   0.0000   0.0000 15.38683946    10
CTC2_L_00514016-02
1 25855U 22661OY  26070.40849537  .00000000  00000+0  00000-0 0  9996
2 25855  97.5000 180.0000 0000000   0.0000 180.0000 15.38683946    10
CTC2_L_00514017-01
1 25856U 26271IY  26070.40849537  .00000000  00000+0  00000-0 0  9998
2 25856  97.5000 192.0000 0000000   0.0000  24.0000 15.38683946    11
CTC2_L_00514017-02
1 25857U 26297VZ  26070.40849537  .00000000  00000+0  00000-0 0  9997
2 25857  97.5000 192.0000 0000000   0.0000 204.0000 15.38683946    12
CTC2_L_00514018-01
1 25858U 22348H   26070.40849537  .00000000  00000+0  00000-0 0  9991
2 25858  97.5000 204.0000 0000000   0.0000  48.0000 15.38683946    13
CTC2_L_00514018-02
1 25859U 26518MH  26070.40849537  .00000000  00000+0  00000-0 0  9995
2 25859  97.5000 204.0000 0000000   0.0000 228.0000 15.38683946    14
CTC2_L_00514019-01
1 25860U 26159VJ  26070.40849537  .00000000  00000+0  00000-0 0  9998
2 25860  97.5000 216.0000 0000000   0.0000  72.0000 15.38683946    16
CTC2_L_00514019-02
1 25861U 23417ZI  26070.40849537  .00000000  00000+0  00000-0 0  9993
2 25861  97.5000 216.0000 0000000   0.0000 252.0000 15.38683946    17
CTC2_L_00514020-01
1 25862U 23118YI  26070.40849537  .00000000  00000+0  00000-0 0  9992
2 25862  97.5000 228.0000 0000000   0.0000  96.0000 15.38683946    17
CTC2_L_00514020-02
1 25863U 25415TA  26070.40849537  .00000000  00000+0  00000-0 0  9995
2 25863  97.5000 228.0000 0000000   0.0000 276.0000 15.38683946    18
CTC2_L_00514021-01
1 25864U 24375II  26070.40849537  .00000000  00000+0  00000-0 0  9990
2 25864  97.5000 240.0000 0000000   0.0000 120.0000 15.38683946    11
CTC2_L_00514021-02
1 25865U 26115EM  26070.40849537  .00000000  00000+0  00000-0 0  9995
2 25865  97.5000 240.0000 0000000   0.0000 300.0000 15.38683946    12
CTC2_L_00514022-01
1 25866U 23240DL  26070.40849537  .00000000  00000+0  00000-0 0  9992
2 25866  97.5000 252.0000 0000000   0.0000 144.0000 15.38683946    12
CTC2_L_00514022-02
1 25867U 23542WW  26070.40849537  .00000000  00000+0  00000-0 0  9998
2 25867  97.5000 252.0000 0000000   0.0000 324.0000 15.38683946    13
CTC2_L_00514023-01
1 25868U 26824XB  26070.40849537  .00000000  00000+0  00000-0 0  9995
2 25868  97.5000 264.0000 0000000   0.0000 168.0000 15.38683946    13
CTC2_L_00514023-02
1 25869U 24979YK  26070.40849537  .00000000  00000+0  00000-0 0  9995
2 25869  97.5000 264.0000 0000000   0.0000 348.0000 15.38683946    14
CTC2_L_00514024-01
1 25870U 22402OV  26070.40849537  .00000000  00000+0  00000-0 0  9996
2 25870  97.5000 276.0000 0000000   0.0000 192.0000 15.38683946    16
CTC2_L_00514024-02
1 25871U 23254WV  26070.40849537  .00000000  00000+0  00000-0 0  9993
2 25871  97.5000 276.0000 0000000   0.0000  12.0000 15.38683946    18
CTC2_L_00514025-01
1 25872U 26438GS  26070.40849537  .00000000  00000+0  00000-0 0  9991
2 25872  97.5000 288.0000 0000000   0.0000 216.0000 15.38683946    18
CTC2_L_00514025-02
1 25873U 23894UP  26070.40849537  .00000000  00000+0  00000-0 0  9995
2 25873  97.5000 288.0000 0000000   0.0000  36.0000 15.38683946    19
CTC2_L_00514026-01
1 25874U 22112XP  26070.40849537  .00000000  00000+0  00000-0 0  9998
2 25874  97.5000 300.0000 0000000   0.0000 240.0000 15.38683946    12
CTC2_L_00514026-02
1 25875U 23765FD  26070.40849537  .00000000  00000+0  00000-0 0  9994
2 25875  97.5000 300.0000 0000000   0.0000  60.0000 15.38683946    13
CTC2_L_00514027-01
1 25876U 25566GK  26070.40849537  .00000000  00000+0  00000-0 0  9996
2 25876  97.5000 312.0000 0000000   0.0000 264.0000 15.38683946    13
CTC2_L_00514027-02
1 25877U 24305AX  26070.40849537  .00000000  00000+0  00000-0 0  9997
2 25877  97.5000 312.0000 0000000   0.0000  84.0000 15.38683946    14
CTC2_L_00514028-01
1 25878U 25697MH  26070.40849537  .00000000  00000+0  00000-0 0  9993
2 25878  97.5000 324.0000 0000000   0.0000 288.0000 15.38683946    14
CTC2_L_00514028-02
1 25879U 26776AP  26070.40849537  .00000000  00000+0  00000-0 0  9993
2 25879  97.5000 324.0000 0000000   0.0000 108.0000 15.38683946    16
CTC2_L_00514029-01
1 25880U 26058SX  26070.40849537  .00000000  00000+0  00000-0 0  9998
2 25880  97.5000 336.0000 0000000   0.0000 312.0000 15.38683946    18
CTC2_L_00514029-02
1 25881U 25123VL  26070.40849537  .00000000  00000+0  00000-0 0  9991
2 25881  97.5000 336.0000 0000000   0.0000 132.0000 15.38683946    19
CTC2_L_00514030-01
1 25882U 26826AO  26070.40849537  .00000000  00000+0  00000-0 0  9993
2 25882  97.5000 348.0000 0000000   0.0000 336.0000 15.38683946    19
CTC2_L_00514030-02
1 25883U 25877WG  26070.40849537  .00000000  00000+0  00000-0 0  9999
2 25883  97.5000 348.0000 0000000   0.0000 156.0000 15.38683946    10
